CCSDS_OMM_VERS = 2.0
CREATION_DATE  = 
ORIGINATOR     = 

OBJECT_NAME    = ATLAS CENTAUR R/B
OBJECT_ID      = 1972-065B
CENTER_NAME    = EARTH
REF_FRAME      = TEME
TIME_SYSTEM    = UTC
MEAN_ELEMENT_THEORY = SGP/SGP4

EPOCH          = 2025-12-26T02:35:21.085152
MEAN_MOTION    = 14.77442552
ECCENTRICITY   = .00332645
INCLINATION    = 35.0025
RA_OF_ASC_NODE = 16.8890
ARG_OF_PERICENTER = 111.7451
MEAN_ANOMALY   = 248.6795

EPHEMERIS_TYPE = 0
CLASSIFICATION_TYPE = U
NORAD_CAT_ID   = 6155
ELEMENT_SET_NO = 999
REV_AT_EPOCH   = 83037
BSTAR          = .1655795E-3
MEAN_MOTION_DOT = .1185E-4
MEAN_MOTION_DDOT = 0

CCSDS_OMM_VERS = 2.0
CREATION_DATE  = 
ORIGINATOR     = 

OBJECT_NAME    = SL-8 R/B
OBJECT_ID      = 1975-112B
CENTER_NAME    = EARTH
REF_FRAME      = TEME
TIME_SYSTEM    = UTC
MEAN_ELEMENT_THEORY = SGP/SGP4

EPOCH          = 2025-12-26T11:09:09.092448
MEAN_MOTION    = 14.38154457
ECCENTRICITY   = .00166854
INCLINATION    = 74.0595
RA_OF_ASC_NODE = 153.6124
ARG_OF_PERICENTER = 263.5688
MEAN_ANOMALY   = 96.3566

EPHEMERIS_TYPE = 0
CLASSIFICATION_TYPE = U
NORAD_CAT_ID   = 8459
ELEMENT_SET_NO = 999
REV_AT_EPOCH   = 62134
BSTAR          = .11371241E-3
MEAN_MOTION_DOT = .319E-5
MEAN_MOTION_DDOT = 0

CCSDS_OMM_VERS = 2.0
CREATION_DATE  = 
ORIGINATOR     = 

OBJECT_NAME    = SL-3 R/B
OBJECT_ID      = 1977-057B
CENTER_NAME    = EARTH
REF_FRAME      = TEME
TIME_SYSTEM    = UTC
MEAN_ELEMENT_THEORY = SGP/SGP4

EPOCH          = 2025-12-26T13:38:24.462816
MEAN_MOTION    = 15.43280205
ECCENTRICITY   = .00074028
INCLINATION    = 97.5693
RA_OF_ASC_NODE = 164.4383
ARG_OF_PERICENTER = 178.2067
MEAN_ANOMALY   = 181.9208

EPHEMERIS_TYPE = 0
CLASSIFICATION_TYPE = U
NORAD_CAT_ID   = 10114
ELEMENT_SET_NO = 999
REV_AT_EPOCH   = 65704
BSTAR          = .28902032E-3
MEAN_MOTION_DOT = .12783E-3
MEAN_MOTION_DDOT = 0

CCSDS_OMM_VERS = 2.0
CREATION_DATE  = 
ORIGINATOR     = 

OBJECT_NAME    = SEASAT 1
OBJECT_ID      = 1978-064A
CENTER_NAME    = EARTH
REF_FRAME      = TEME
TIME_SYSTEM    = UTC
MEAN_ELEMENT_THEORY = SGP/SGP4

EPOCH          = 2025-12-26T14:04:57.877536
MEAN_MOTION    = 14.46076045
ECCENTRICITY   = .00013035
INCLINATION    = 108.0140
RA_OF_ASC_NODE = 332.0861
ARG_OF_PERICENTER = 256.6010
MEAN_ANOMALY   = 103.4991

EPHEMERIS_TYPE = 0
CLASSIFICATION_TYPE = U
NORAD_CAT_ID   = 10967
ELEMENT_SET_NO = 999
REV_AT_EPOCH   = 49594
BSTAR          = .15662122E-3
MEAN_MOTION_DOT = .422E-5
MEAN_MOTION_DDOT = 0

CCSDS_OMM_VERS = 2.0
CREATION_DATE  = 
ORIGINATOR     = 

OBJECT_NAME    = SL-14 R/B
OBJECT_ID      = 1979-011B
CENTER_NAME    = EARTH
REF_FRAME      = TEME
TIME_SYSTEM    = UTC
MEAN_ELEMENT_THEORY = SGP/SGP4

EPOCH          = 2025-12-26T11:18:56.441376
MEAN_MOTION    = 14.91786500
ECCENTRICITY   = .00148143
INCLINATION    = 82.5234
RA_OF_ASC_NODE = 166.0203
ARG_OF_PERICENTER = 305.4275
MEAN_ANOMALY   = 54.5560

EPHEMERIS_TYPE = 0
CLASSIFICATION_TYPE = U
NORAD_CAT_ID   = 11267
ELEMENT_SET_NO = 999
REV_AT_EPOCH   = 51786
BSTAR          = .66651049E-4
MEAN_MOTION_DOT = .698E-5
MEAN_MOTION_DDOT = 0

CCSDS_OMM_VERS = 2.0
CREATION_DATE  = 
ORIGINATOR     = 

OBJECT_NAME    = SL-8 R/B
OBJECT_ID      = 1979-089B
CENTER_NAME    = EARTH
REF_FRAME      = TEME
TIME_SYSTEM    = UTC
MEAN_ELEMENT_THEORY = SGP/SGP4

EPOCH          = 2025-12-26T13:40:50.936736
MEAN_MOTION    = 14.42292071
ECCENTRICITY   = .00147582
INCLINATION    = 74.0673
RA_OF_ASC_NODE = 226.3823
ARG_OF_PERICENTER = 55.0469
MEAN_ANOMALY   = 305.2071

EPHEMERIS_TYPE = 0
CLASSIFICATION_TYPE = U
NORAD_CAT_ID   = 11574
ELEMENT_SET_NO = 999
REV_AT_EPOCH   = 42556
BSTAR          = .82147132E-4
MEAN_MOTION_DOT = .245E-5
MEAN_MOTION_DDOT = 0

CCSDS_OMM_VERS = 2.0
CREATION_DATE  = 
ORIGINATOR     = 

OBJECT_NAME    = SL-14 R/B
OBJECT_ID      = 1980-005B
CENTER_NAME    = EARTH
REF_FRAME      = TEME
TIME_SYSTEM    = UTC
MEAN_ELEMENT_THEORY = SGP/SGP4

EPOCH          = 2025-12-26T10:28:32.198592
MEAN_MOTION    = 14.90807318
ECCENTRICITY   = .00170288
INCLINATION    = 82.5140
RA_OF_ASC_NODE = 16.7081
ARG_OF_PERICENTER = 51.6360
MEAN_ANOMALY   = 308.6386

EPHEMERIS_TYPE = 0
CLASSIFICATION_TYPE = U
NORAD_CAT_ID   = 11672
ELEMENT_SET_NO = 999
REV_AT_EPOCH   = 46557
BSTAR          = .62946207E-4
MEAN_MOTION_DOT = .646E-5
MEAN_MOTION_DDOT = 0

CCSDS_OMM_VERS = 2.0
CREATION_DATE  = 
ORIGINATOR     = 

OBJECT_NAME    = SL-8 R/B
OBJECT_ID      = 1981-003B
CENTER_NAME    = EARTH
REF_FRAME      = TEME
TIME_SYSTEM    = UTC
MEAN_ELEMENT_THEORY = SGP/SGP4

EPOCH          = 2025-12-26T11:31:32.454336
MEAN_MOTION    = 15.07454141
ECCENTRICITY   = .02775269
INCLINATION    = 82.9351
RA_OF_ASC_NODE = 357.5593
ARG_OF_PERICENTER = 73.0829
MEAN_ANOMALY   = 290.0625

EPHEMERIS_TYPE = 0
CLASSIFICATION_TYPE = U
NORAD_CAT_ID   = 12139
ELEMENT_SET_NO = 999
REV_AT_EPOCH   = 30363
BSTAR          = .47142572E-3
MEAN_MOTION_DOT = .17829E-3
MEAN_MOTION_DDOT = 0

CCSDS_OMM_VERS = 2.0
CREATION_DATE  = 
ORIGINATOR     = 

OBJECT_NAME    = SL-3 R/B
OBJECT_ID      = 1981-046B
CENTER_NAME    = EARTH
REF_FRAME      = TEME
TIME_SYSTEM    = UTC
MEAN_ELEMENT_THEORY = SGP/SGP4

EPOCH          = 2025-12-26T14:26:09.403872
MEAN_MOTION    = 15.39894642
ECCENTRICITY   = .00180686
INCLINATION    = 81.2324
RA_OF_ASC_NODE = 17.3510
ARG_OF_PERICENTER = 273.5277
MEAN_ANOMALY   = 86.3898

EPHEMERIS_TYPE = 0
CLASSIFICATION_TYPE = U
NORAD_CAT_ID   = 12465
ELEMENT_SET_NO = 999
REV_AT_EPOCH   = 42717
BSTAR          = .30170684E-3
MEAN_MOTION_DOT = .12095E-3
MEAN_MOTION_DDOT = 0

CCSDS_OMM_VERS = 2.0
CREATION_DATE  = 
ORIGINATOR     = 

OBJECT_NAME    = SL-3 R/B
OBJECT_ID      = 1981-103B
CENTER_NAME    = EARTH
REF_FRAME      = TEME
TIME_SYSTEM    = UTC
MEAN_ELEMENT_THEORY = SGP/SGP4

EPOCH          = 2025-12-26T14:42:55.479168
MEAN_MOTION    = 15.20396035
ECCENTRICITY   = .00128781
INCLINATION    = 81.1599
RA_OF_ASC_NODE = 299.1049
ARG_OF_PERICENTER = 164.4190
MEAN_ANOMALY   = 195.7440

EPHEMERIS_TYPE = 0
CLASSIFICATION_TYPE = U
NORAD_CAT_ID   = 12904
ELEMENT_SET_NO = 999
REV_AT_EPOCH   = 96212
BSTAR          = .27836436E-3
MEAN_MOTION_DOT = .6101E-4
MEAN_MOTION_DDOT = 0

CCSDS_OMM_VERS = 2.0
CREATION_DATE  = 
ORIGINATOR     = 

OBJECT_NAME    = SL-3 R/B
OBJECT_ID      = 1982-013B
CENTER_NAME    = EARTH
REF_FRAME      = TEME
TIME_SYSTEM    = UTC
MEAN_ELEMENT_THEORY = SGP/SGP4

EPOCH          = 2025-12-26T15:42:42.114240
MEAN_MOTION    = 15.21205357
ECCENTRICITY   = .00240889
INCLINATION    = 81.1737
RA_OF_ASC_NODE = 246.3216
ARG_OF_PERICENTER = 66.4234
MEAN_ANOMALY   = 293.9524

EPHEMERIS_TYPE = 0
CLASSIFICATION_TYPE = U
NORAD_CAT_ID   = 13068
ELEMENT_SET_NO = 999
REV_AT_EPOCH   = 39324
BSTAR          = .19384703E-3
MEAN_MOTION_DOT = .4383E-4
MEAN_MOTION_DDOT = 0

CCSDS_OMM_VERS = 2.0
CREATION_DATE  = 
ORIGINATOR     = 

OBJECT_NAME    = SL-3 R/B
OBJECT_ID      = 1982-039B
CENTER_NAME    = EARTH
REF_FRAME      = TEME
TIME_SYSTEM    = UTC
MEAN_ELEMENT_THEORY = SGP/SGP4

EPOCH          = 2025-12-26T11:49:40.582848
MEAN_MOTION    = 15.09603831
ECCENTRICITY   = .00294291
INCLINATION    = 81.1708
RA_OF_ASC_NODE = 300.2742
ARG_OF_PERICENTER = 205.4944
MEAN_ANOMALY   = 154.4832

EPHEMERIS_TYPE = 0
CLASSIFICATION_TYPE = U
NORAD_CAT_ID   = 13154
ELEMENT_SET_NO = 999
REV_AT_EPOCH   = 37059
BSTAR          = .20013766E-3
MEAN_MOTION_DOT = .3271E-4
MEAN_MOTION_DDOT = 0

