ATLAS CENTAUR R/B       
1 06155U 72065B   25360.10788293  .00001185  00000+0  16558-3 0  9993
2 06155  35.0025  16.8890 0033264 111.7451 248.6795 14.77442552830377
SL-8 R/B                
1 08459U 75112B   25360.46468857  .00000319  00000+0  11371-3 0  9994
2 08459  74.0595 153.6124 0016685 263.5688  96.3566 14.38154457621347
SL-3 R/B                
1 10114U 77057B   25360.56833869  .00012783  00000+0  28902-3 0  9991
2 10114  97.5693 164.4383 0007402 178.2067 181.9208 15.43280205657042
SEASAT 1                
1 10967U 78064A   25360.58678099  .00000422  00000+0  15662-3 0  9996
2 10967 108.0140 332.0861 0001303 256.6010 103.4991 14.46076045495944
SL-14 R/B               
1 11267U 79011B   25360.47148659  .00000698  00000+0  66651-4 0  9995
2 11267  82.5234 166.0203 0014814 305.4275  54.5560 14.91786500517868
SL-8 R/B                
1 11574U 79089B   25360.57003399  .00000245  00000+0  82147-4 0  9999
2 11574  74.0673 226.3823 0014758  55.0469 305.2071 14.42292071425569
SL-14 R/B               
1 11672U 80005B   25360.43648378  .00000646  00000+0  62946-4 0  9995
2 11672  82.5140  16.7081 0017028  51.6360 308.6386 14.90807318465573
SL-8 R/B                
1 12139U 81003B   25360.48023674  .00017829  00000+0  47143-3 0  9996
2 12139  82.9351 357.5593 0277526  73.0829 290.0625 15.07454141303632
SL-3 R/B                
1 12465U 81046B   25360.60149773  .00012095  00000+0  30171-3 0  9991
2 12465  81.2324  17.3510 0018068 273.5277  86.3898 15.39894642427177
SL-3 R/B                
1 12904U 81103B   25360.61314212  .00006101  00000+0  27836-3 0  9991
2 12904  81.1599 299.1049 0012878 164.4190 195.7440 15.20396035962120
SL-3 R/B                
1 13068U 82013B   25360.65465410  .00004383  00000+0  19385-3 0  9995
2 13068  81.1737 246.3216 0024088  66.4234 293.9524 15.21205357393244
SL-3 R/B                
1 13154U 82039B   25360.49283082  .00003271  00000+0  20014-3 0  9990
2 13154  81.1708 300.2742 0029429 205.4944 154.4832 15.09603831370590
